FENGYUN 1C DEB          
1 31046U 99025BEQ 17345.51810458  .00001053  00000-0  52918-3 0  9998
2 31046  99.0423 344.7324 0104586 248.1675 241.1143 14.15965050549928
